STARLINK-34651          
1 64861U 25152V   26131.14406934  .00005448  00000+0  38144-3 0  9997
2 64861  97.5102 346.9168 0002475  70.3179 289.8315 15.05644477 44819
STARLINK-34684          
1 64862U 25152W   26131.18560208  .00001877  00000+0  13416-3 0  9994
2 64862  97.5078 347.0025 0002045  81.2642 278.8817 15.05653529 44829
STARLINK-34690          
1 64863U 25152X   26131.17729848  .00000914  00000+0  67469-4 0  9990
2 64863  97.5083 347.0130 0002657  73.4460 286.7059 15.05651329 44825
STARLINK-34628          
1 64864U 25152Y   26131.18837144  .00002394  00000+0  16994-3 0  9991
2 64864  97.5083 346.9933 0002643  89.2845 270.8685 15.05653507 44821
STARLINK-34544          
1 64865U 25152Z   26131.18006245  .00003073  00000+0  21705-3 0  9993
2 64865  97.5073 347.0012 0002027  84.1155 276.0303 15.05645408 44821
O3B MPOWER F9           
1 64866U 25153A   26129.99679884 -.00000015  00000+0  00000+0 0  9991
2 64866   0.0555  14.3729 0005787  58.5173 287.1751  5.00116034 17659
O3B MPOWER F10          
1 64867U 25153B   26130.96218120 -.00000013  00000+0  00000+0 0  9991
2 64867   0.0547   9.4812 0002353 263.4397  87.0544  5.00114881 20176
LIDE                    
1 64869U 25154A   26131.16054632  .00001386  00000+0  13480-3 0  9996
2 64869  97.6735 195.8306 0005253  12.6668 347.4683 14.94121280 43473
TRACERS 1               
1 64870U 25154B   26131.18918622  .00001194  00000+0  11906-3 0  9996
2 64870  97.6708 195.7343 0006054  34.9503 325.2114 14.93363894 43471
ATHENA EPIC             
1 64871U 25154C   26131.16593072  .00000801  00000+0  80379-4 0  9998
2 64871  97.6690 195.8435 0006979  21.9986 338.1532 14.93983994 43489
SKYCRAFT-4B             
1 64872U 25154D   26131.15206954  .00003129  00000+0  27551-3 0  9996
2 64872  97.6685 196.4630 0005529  36.9513 323.2089 14.97190423 43506
TRACERS 2               
1 64873U 25154E   26131.18895294  .00001166  00000+0  11638-3 0  9999
2 64873  97.6711 195.7446 0005169  70.7001 289.4778 14.93364751 43479
PEXT (BARD)             
1 64874U 25154F   26131.18356279  .00001948  00000+0  92993-4 0  9997
2 64874  97.3981 196.8912 0004243  70.1974 289.9718 15.20217532 44229
REAL                    
1 64875U 25154G   26131.18680647  .00013412  00000+0  44778-3 0  9993
2 64875  97.4050 199.5376 0001655 126.7572 233.3822 15.31163535 44389
IONOSFERA-M 3           
1 64876U 25155A   26131.15086792  .00000031  00000+0  33839-4 0  9993
2 64876  98.6010  93.9937 0001275  21.3672 338.7559 14.21479933 41146
IONOSFERA-M 4           
1 64877U 25155B   26131.18576442  .00000039  00000+0  37455-4 0  9999
2 64877  98.6003  93.9455 0000906  50.6561 309.4697 14.21481990 41140
INNOSAT 16 (RS92S7)     
1 64878U 25155C   26131.19735406  .00003995  00000+0  16263-3 0  9995
2 64878  97.4541  98.4611 0009179 325.5056  34.5585 15.25051483 75035
GEOSCAN 6 (RS92S6)      
1 64879U 25155D   26131.15880779  .00006918  00000+0  24489-3 0  9993
2 64879  97.4534  99.5945 0006150 321.2746  38.8052 15.29444103 75108
GEOSCAN 1 (RS92S1)      
1 64880U 25155E   26131.17491544  .00007079  00000+0  24647-3 0  9990
2 64880  97.4531  99.7282 0006014 321.5381  38.5430 15.29980989 75115
239ALFEROV (RS61S)      
1 64881U 25155F   26131.19444847  .00009539  00000+0  31170-3 0  9999
2 64881  97.4533 100.1918 0005372 322.3621  37.7243 15.31940471 75144
2025-155G               
1 64882U 25155G   26131.19014571  .00006001  00000+0  21644-3 0  9993
2 64882  97.4559  99.6209 0005720 323.1807  36.9040 15.28892623 75103
2025-155H               
1 64883U 25155H   26131.19024053  .00005908  00000+0  21331-3 0  9998
2 64883  97.4551  99.6008 0005452 322.2337  37.8520 15.28864774 75102
2025-155J               
1 64884U 25155J   26131.18983221  .00006216  00000+0  22416-3 0  9997
2 64884  97.4545  99.5959 0005502 316.2259  43.8544 15.28884311 75104
2025-155K               
1 64885U 25155K   26131.13360258  .00013110  00000+0  35599-3 0  9999
2 64885  97.4488 101.1602 0003971 304.2352  55.8516 15.37711209 75214
2025-155L               
1 64886U 25155L   26131.16046397  .00020951  00000+0  53528-3 0  9991
2 64886  97.4450 101.3858 0003727 308.7367  51.3545 15.39485341 75235
2025-155M               
1 64887U 25155M   26131.13456183  .00017697  00000+0  49933-3 0  9995
2 64887  97.4486 100.9038 0004365 305.8267  54.2571 15.36447772 75195
2025-155N               
1 64888U 25155N   26131.14998368  .00019883  00000+0  50693-3 0  9997
2 64888  97.4457 101.4267 0003531 304.9915  55.0999 15.39561895 75232
2025-155P               
1 64889U 25155P   26131.16310873  .00003468  00000+0  13704-3 0  9993
2 64889  97.4569  99.0680 0005828 320.2681  39.8130 15.26168215 75063
GEOSCAN 2 (RS92S2)      
1 64890U 25155Q   26131.17523519  .00006875  00000+0  23741-3 0  9996
2 64890  97.4530  99.8661 0005032 305.4342  54.6428 15.30262502 75127
GEOSCAN 5 (RS92S5)      
1 64891U 25155R   26131.19116227  .00009200  00000+0  29776-3 0  9992
2 64891  97.4526 100.3117 0004559 334.5416  25.5600 15.32262447 75157
