OBJECT_NAME,OBJECT_ID,EPOCH,MEAN_MOTION,ECCENTRICITY,INCLINATION,RA_OF_ASC_NODE,ARG_OF_PERICENTER,MEAN_ANOMALY,EPHEMERIS_TYPE,CLASSIFICATION_TYPE,NORAD_CAT_ID,ELEMENT_SET_NO,REV_AT_EPOCH,BSTAR,MEAN_MOTION_DOT,MEAN_MOTION_DDOT
STARLINK-34651,2025-152V,2026-05-11T03:27:27.590976,15.05644477,.0002475,97.5102,346.9168,70.3179,289.8315,0,U,64861,999,4481,.38144E-3,.5448E-4,0
STARLINK-34684,2025-152W,2026-05-11T04:27:16.019712,15.05653529,.0002045,97.5078,347.0025,81.2642,278.8817,0,U,64862,999,4482,.13416E-3,.1877E-4,0
STARLINK-34690,2025-152X,2026-05-11T04:15:18.588672,15.05651329,.0002657,97.5083,347.0130,73.4460,286.7059,0,U,64863,999,4482,.67469E-4,.914E-5,0
STARLINK-34628,2025-152Y,2026-05-11T04:31:15.292416,15.05653507,.0002643,97.5083,346.9933,89.2845,270.8685,0,U,64864,999,4482,.16994E-3,.2394E-4,0
STARLINK-34544,2025-152Z,2026-05-11T04:19:17.395680,15.05645408,.0002027,97.5073,347.0012,84.1155,276.0303,0,U,64865,999,4482,.21705E-3,.3073E-4,0
O3B MPOWER F9,2025-153A,2026-05-09T23:55:23.419776,5.00116034,.00057878,0.0555,14.3729,58.5173,287.1751,0,U,64866,999,1765,0,-.15E-6,0
O3B MPOWER F10,2025-153B,2026-05-10T23:05:32.455680,5.00114881,.0002353,0.0547,9.4812,263.4397,87.0544,0,U,64867,999,2017,0,-.13E-6,0
LIDE,2025-154A,2026-05-11T03:51:11.202048,14.94121280,.0005253,97.6735,195.8306,12.6668,347.4683,0,U,64869,999,4347,.1348E-3,.1386E-4,0
TRACERS 1,2025-154B,2026-05-11T04:32:25.689408,14.93363894,.0006054,97.6708,195.7343,34.9503,325.2114,0,U,64870,999,4347,.11906E-3,.1194E-4,0
ATHENA EPIC,2025-154C,2026-05-11T03:58:56.414208,14.93983994,.0006979,97.6690,195.8435,21.9986,338.1532,0,U,64871,999,4348,.80379E-4,.801E-5,0
SKYCRAFT-4B,2025-154D,2026-05-11T03:38:58.808256,14.97190423,.00055294,97.6685,196.4630,36.9513,323.2089,0,U,64872,999,4350,.27551198E-3,.3129E-4,0
TRACERS 2,2025-154E,2026-05-11T04:32:05.534016,14.93364751,.0005169,97.6711,195.7446,70.7001,289.4778,0,U,64873,999,4347,.11638E-3,.1166E-4,0
PEXT (BARD),2025-154F,2026-05-11T04:24:19.825056,15.20217532,.0004243,97.3981,196.8912,70.1974,289.9718,0,U,64874,999,4422,.92993E-4,.1948E-4,0
REAL,2025-154G,2026-05-11T04:29:00.079008,15.31163535,.0001655,97.4050,199.5376,126.7572,233.3822,0,U,64875,999,4438,.44778E-3,.13412E-3,0
IONOSFERA-M 3,2025-155A,2026-05-11T03:37:14.988288,14.21479933,.00012751,98.6010,93.9937,21.3672,338.7559,0,U,64876,999,4114,.33838912E-4,.31E-6,0
IONOSFERA-M 4,2025-155B,2026-05-11T04:27:30.045888,14.21481990,.00009065,98.6003,93.9455,50.6561,309.4697,0,U,64877,999,4114,.37455188E-4,.39E-6,0
INNOSAT 16 (RS92S7),2025-155C,2026-05-11T04:44:11.390784,15.25051483,.0009179,97.4541,98.4611,325.5056,34.5585,0,U,64878,999,7503,.16263E-3,.3995E-4,0
GEOSCAN 6 (RS92S6),2025-155D,2026-05-11T03:48:40.993056,15.29444103,.00061509,97.4534,99.5945,321.2746,38.8052,0,U,64879,999,7510,.24488582E-3,.6918E-4,0
GEOSCAN 1 (RS92S1),2025-155E,2026-05-11T04:11:52.694016,15.29980989,.0006014,97.4531,99.7282,321.5381,38.5430,0,U,64880,999,7511,.24647E-3,.7079E-4,0
239ALFEROV (RS61S),2025-155F,2026-05-11T04:40:00.347808,15.31940471,.0005372,97.4533,100.1918,322.3621,37.7243,0,U,64881,999,7514,.3117E-3,.9539E-4,0
2025-155G,2025-155G,2026-05-11T04:33:48.589344,15.28892623,.000572,97.4559,99.6209,323.1807,36.9040,0,U,64882,999,7510,.21644E-3,.6001E-4,0
2025-155H,2025-155H,2026-05-11T04:33:56.781792,15.28864774,.0005452,97.4551,99.6008,322.2337,37.8520,0,U,64883,999,7510,.21331E-3,.5908E-4,0
2025-155J,2025-155J,2026-05-11T04:33:21.502944,15.28884311,.0005502,97.4545,99.5959,316.2259,43.8544,0,U,64884,999,7510,.22416E-3,.6216E-4,0
2025-155K,2025-155K,2026-05-11T03:12:23.262912,15.37711209,.0003971,97.4488,101.1602,304.2352,55.8516,0,U,64885,999,7521,.35599E-3,.1311E-3,0
2025-155L,2025-155L,2026-05-11T03:51:04.087008,15.39485341,.0003727,97.4450,101.3858,308.7367,51.3545,0,U,64886,999,7523,.53528E-3,.20951E-3,0
2025-155M,2025-155M,2026-05-11T03:13:46.142112,15.36447772,.00043654,97.4486,100.9038,305.8267,54.2571,0,U,64887,999,7519,.49932763E-3,.17697E-3,0
2025-155N,2025-155N,2026-05-11T03:35:58.589952,15.39561895,.00035318,97.4457,101.4267,304.9915,55.0999,0,U,64888,999,7523,.50692575E-3,.19883E-3,0
2025-155P,2025-155P,2026-05-11T03:54:52.594272,15.26168215,.00058287,97.4569,99.0680,320.2681,39.8130,0,U,64889,999,7506,.13704044E-3,.3468E-4,0
GEOSCAN 2 (RS92S2),2025-155Q,2026-05-11T04:12:20.320416,15.30262502,.0005032,97.4530,99.8661,305.4342,54.6428,0,U,64890,999,7512,.23741E-3,.6875E-4,0
GEOSCAN 5 (RS92S5),2025-155R,2026-05-11T04:35:16.420128,15.32262447,.0004559,97.4526,100.3117,334.5416,25.5600,0,U,64891,999,7515,.29776E-3,.92E-4,0
